{
"type": "FeatureCollection",
"attribution": "© OpenStreetMap contributors (ODbL), fetched 26 Sep 2026; curated for Barangay 183",
"features": [
{
"type": "Feature",
"properties": {
"name": "Royal Air Charter",
"group": "transport"
},
"geometry": {
"type": "Point",
"coordinates": [
121.000992,
14.527416
]
}
},
{
"type": "Feature",
"properties": {
"name": "Police Help Desk",
"group": "safety"
},
"geometry": {
"type": "Point",
"coordinates": [
121.012676,
14.509743
]
}
},
{
"type": "Feature",
"properties": {
"name": "Metro Supermarket",
"group": "shop"
},
"geometry": {
"type": "Point",
"coordinates": [
121.013598,
14.524096
]
}
},
{
"type": "Feature",
"properties": {
"name": "Ang Dating Daan",
"group": "worship"
},
"geometry": {
"type": "Point",
"coordinates": [
121.01285,
14.526977
]
}
},
{
"type": "Feature",
"properties": {
"name": "Philippine Air Force Finance Center",
"group": "government"
},
"geometry": {
"type": "Point",
"coordinates": [
121.02081,
14.515984
]
}
},
{
"type": "Feature",
"properties": {
"name": "Church of God - Marriott Manila",
"group": "worship"
},
"geometry": {
"type": "Point",
"coordinates": [
121.018861,
14.520613
]
}
},
{
"type": "Feature",
"properties": {
"name": "TGP",
"group": "health"
},
"geometry": {
"type": "Point",
"coordinates": [
121.012089,
14.525187
]
}
},
{
"type": "Feature",
"properties": {
"name": "Watsons",
"group": "health"
},
"geometry": {
"type": "Point",
"coordinates": [
121.01391,
14.523107
]
}
},
{
"type": "Feature",
"properties": {
"name": "Zoe",
"group": "health"
},
"geometry": {
"type": "Point",
"coordinates": [
121.0121,
14.525104
]
}
},
{
"type": "Feature",
"properties": {
"name": "LBC",
"group": "service"
},
"geometry": {
"type": "Point",
"coordinates": [
121.011999,
14.52514
]
}
},
{
"type": "Feature",
"properties": {
"name": "Watsons",
"group": "health"
},
"geometry": {
"type": "Point",
"coordinates": [
121.015843,
14.521818
]
}
},
{
"type": "Feature",
"properties": {
"name": "Bureau of Immigration One-Stop Shop",
"group": "government"
},
"geometry": {
"type": "Point",
"coordinates": [
121.013777,
14.518816
]
}
},
{
"type": "Feature",
"properties": {
"name": "Muslim Prayer Room",
"group": "worship"
},
"geometry": {
"type": "Point",
"coordinates": [
121.011826,
14.508922
]
}
},
{
"type": "Feature",
"properties": {
"name": "Villamor Airbase Elementary School",
"group": "school"
},
"geometry": {
"type": "Point",
"coordinates": [
121.02149,
14.52986
]
}
},
{
"type": "Feature",
"properties": {
"name": "Villamor Air Base",
"group": "military"
},
"geometry": {
"type": "Point",
"coordinates": [
121.023315,
14.517147
]
}
},
{
"type": "Feature",
"properties": {
"name": "Shrine of St. Thérèse of the Child Jesus",
"group": "worship"
},
"geometry": {
"type": "Point",
"coordinates": [
121.015915,
14.521242
]
}
},
{
"type": "Feature",
"properties": {
"name": "Philippines State College of Aeronautics",
"group": "school"
},
"geometry": {
"type": "Point",
"coordinates": [
121.023628,
14.526701
]
}
},
{
"type": "Feature",
"properties": {
"name": "Pasay City South High School",
"group": "school"
},
"geometry": {
"type": "Point",
"coordinates": [
121.022535,
14.528671
]
}
},
{
"type": "Feature",
"properties": {
"name": "The Airmen's Mall",
"group": "shop"
},
"geometry": {
"type": "Point",
"coordinates": [
121.020853,
14.516857
]
}
},
{
"type": "Feature",
"properties": {
"name": "Barangay 183 Hall",
"group": "hall"
},
"geometry": {
"type": "Point",
"coordinates": [
121.012596,
14.525104
]
}
},
{
"type": "Feature",
"properties": {
"name": "Our Lady of Loreto Chapel",
"group": "worship"
},
"geometry": {
"type": "Point",
"coordinates": [
121.021854,
14.517326
]
}
},
{
"type": "Feature",
"properties": {
"name": "Villamor Police Sub-station",
"group": "safety"
},
"geometry": {
"type": "Point",
"coordinates": [
121.011864,
14.525239
]
}
},
{
"type": "Feature",
"properties": {
"name": "Villamor Post Exchange",
"group": "shop"
},
"geometry": {
"type": "Point",
"coordinates": [
121.020643,
14.516449
]
}
},
{
"type": "Feature",
"properties": {
"name": "Terminal 2 South Wing",
"group": "transport"
},
"geometry": {
"type": "Point",
"coordinates": [
121.012737,
14.509
]
}
},
{
"type": "Feature",
"properties": {
"name": "Terminal 2 North Wing",
"group": "transport"
},
"geometry": {
"type": "Point",
"coordinates": [
121.013027,
14.510361
]
}
},
{
"type": "Feature",
"properties": {
"name": "NAIA Terminal 3",
"group": "transport"
},
"geometry": {
"type": "Point",
"coordinates": [
121.01344,
14.519225
]
}
},
{
"type": "Feature",
"properties": {
"name": "NAIA Centennial Terminal 2",
"group": "transport"
},
"geometry": {
"type": "Point",
"coordinates": [
121.013414,
14.509618
]
}
},
{
"type": "Feature",
"properties": {
"name": "Air Force Office School",
"group": "school"
},
"geometry": {
"type": "Point",
"coordinates": [
121.023676,
14.520384
]
}
},
{
"type": "Feature",
"properties": {
"name": "Protacio Park",
"group": "park"
},
"geometry": {
"type": "Point",
"coordinates": [
121.025586,
14.519014
]
}
},
{
"type": "Feature",
"properties": {
"name": "PAF Firing Range",
"group": "military"
},
"geometry": {
"type": "Point",
"coordinates": [
121.028262,
14.517381
]
}
},
{
"type": "Feature",
"properties": {
"name": "Newport Mall",
"group": "shop"
},
"geometry": {
"type": "Point",
"coordinates": [
121.019938,
14.518895
]
}
},
{
"type": "Feature",
"properties": {
"name": "Philippine National Police Aviation Security Group",
"group": "safety"
},
"geometry": {
"type": "Point",
"coordinates": [
121.028809,
14.509541
]
}
},
{
"type": "Feature",
"properties": {
"name": "PNP Aviation Security Group",
"group": "safety"
},
"geometry": {
"type": "Point",
"coordinates": [
121.024109,
14.509144
]
}
},
{
"type": "Feature",
"properties": {
"name": "Eighty One Mall",
"group": "shop"
},
"geometry": {
"type": "Point",
"coordinates": [
121.014136,
14.522658
]
}
},
{
"type": "Feature",
"properties": {
"name": "505th Squadron Serenity Park",
"group": "park"
},
"geometry": {
"type": "Point",
"coordinates": [
121.027393,
14.516823
]
}
},
{
"type": "Feature",
"properties": {
"name": "Mini Playground",
"group": "park"
},
"geometry": {
"type": "Point",
"coordinates": [
121.027882,
14.518129
]
}
},
{
"type": "Feature",
"properties": {
"name": "Air Force General Hospital",
"group": "health"
},
"geometry": {
"type": "Point",
"coordinates": [
121.019923,
14.516912
]
}
},
{
"type": "Feature",
"properties": {
"name": "Manila International Airport Fire Station",
"group": "safety"
},
"geometry": {
"type": "Point",
"coordinates": [
121.025333,
14.509001
]
}
}
]
}